{"type": "FeatureCollection", "features": [ {"type": "Feature", "properties": {"norad_id": 30242, "name": "FENGYUN 1C DEB", "group": "fengyun-1c-debris", "lat": -60.24233041915481, "lon": 49.596997466157326, "alt_km": 838.763257333344, "timestamp": "2025-12-26T05:31:12.782424+00:00", "meta": {"OBJECT_NAME": "FENGYUN 1C DEB", "OBJECT_ID": "1999-025XB", "EPOCH": "2025-12-25T01:18:32.993856", "MEAN_MOTION": 14.1766643, "ECCENTRICITY": 0.00105064, "INCLINATION": 98.6825, "RA_OF_ASC_NODE": 32.9463, "ARG_OF_PERICENTER": 19.9167, "MEAN_ANOMALY": 43.1258, "EPHEMERIS_TYPE": 0, "CLASSIFICATION_TYPE": "U", "NORAD_CAT_ID": 30242, "ELEMENT_SET_NO": 999, "REV_AT_EPOCH": 97601, "BSTAR": 0.00055962945, "MEAN_MOTION_DOT": 1.096e-05, "MEAN_MOTION_DDOT": 0}, "tle": {"line1": "1 30242U 99025XB  25359.05454854  .00001096  00000+0  55963-3 0  9991", "line2": "2 30242  98.6825  32.9463 0010506  19.9167  43.1258 14.17666430976017"}}, "geometry": {"type": "Point", "coordinates": [49.596997466157326, -60.24233041915481]}}, {"type": "Feature", "properties": {"norad_id": 30243, "name": "FENGYUN 1C DEB", "group": "fengyun-1c-debris", "lat": 21.172327848010237, "lon": -165.3454993968084, "alt_km": 846.2910815997284, "timestamp": "2025-12-26T05:31:12.782433+00:00", "meta": {"OBJECT_NAME": "FENGYUN 1C DEB", "OBJECT_ID": "1999-025XC", "EPOCH": "2025-12-25T23:55:54.359616", "MEAN_MOTION": 14.13040573, "ECCENTRICITY": 0.0013188, "INCLINATION": 98.6926, "RA_OF_ASC_NODE": 11.0314, "ARG_OF_PERICENTER": 84.2591, "MEAN_ANOMALY": 330.2163, "EPHEMERIS_TYPE": 0, "CLASSIFICATION_TYPE": "U", "NORAD_CAT_ID": 30243, "ELEMENT_SET_NO": 999, "REV_AT_EPOCH": 97466, "BSTAR": 0.00036518901, "MEAN_MOTION_DOT": 6.39e-06, "MEAN_MOTION_DDOT": 0}, "tle": {"line1": "1 30243U 99025XC  25359.99715694  .00000639  00000+0  36519-3 0  9995", "line2": "2 30243  98.6926  11.0314 0013188  84.2591 330.2163 14.13040573974662"}}, "geometry": {"type": "Point", "coordinates": [-165.3454993968084, 21.172327848010237]}}, {"type": "Feature", "properties": {"norad_id": 30244, "name": "FENGYUN 1C DEB", "group": "fengyun-1c-debris", "lat": 80.83503051804324, "lon": 156.7898634226439, "alt_km": 841.2429921817429, "timestamp": "2025-12-26T05:31:12.782443+00:00", "meta": {"OBJECT_NAME": "FENGYUN 1C DEB", "OBJECT_ID": "1999-025XD", "EPOCH": "2025-12-25T15:46:11.310240", "MEAN_MOTION": 14.15034684, "ECCENTRICITY": 0.0009049, "INCLINATION": 99.1432, "RA_OF_ASC_NODE": 249.6256, "ARG_OF_PERICENTER": 276.9651, "MEAN_ANOMALY": 136.5888, "EPHEMERIS_TYPE": 0, "CLASSIFICATION_TYPE": "U", "NORAD_CAT_ID": 30244, "ELEMENT_SET_NO": 999, "REV_AT_EPOCH": 97529, "BSTAR": 0.00038683, "MEAN_MOTION_DOT": 7.03e-06, "MEAN_MOTION_DDOT": 0}, "tle": {"line1": "1 30244U 99025XD  25359.65707535  .00000703  00000+0  38683-3 0  9990", "line2": "2 30244  99.1432 249.6256 0009049 276.9651 136.5888 14.15034684975292"}}, "geometry": {"type": "Point", "coordinates": [156.7898634226439, 80.83503051804324]}}, {"type": "Feature", "properties": {"norad_id": 30245, "name": "FENGYUN 1C DEB", "group": "fengyun-1c-debris", "lat": -68.73336955888747, "lon": 10.716798554122082, "alt_km": 934.3309866171876, "timestamp": "2025-12-26T05:31:12.782454+00:00", "meta": {"OBJECT_NAME": "FENGYUN 1C DEB", "OBJECT_ID": "1999-025XE", "EPOCH": "2025-12-25T22:54:04.445568", "MEAN_MOTION": 13.79097702, "ECCENTRICITY": 0.0192858, "INCLINATION": 98.8901, "RA_OF_ASC_NODE": 346.7464, "ARG_OF_PERICENTER": 215.5047, "MEAN_ANOMALY": 143.3145, "EPHEMERIS_TYPE": 0, "CLASSIFICATION_TYPE": "U", "NORAD_CAT_ID": 30245, "ELEMENT_SET_NO": 999, "REV_AT_EPOCH": 94876, "BSTAR": 0.00089433276, "MEAN_MOTION_DOT": 1.01e-05, "MEAN_MOTION_DDOT": 0}, "tle": {"line1": "1 30245U 99025XE  25359.95421812  .00001010  00000+0  89433-3 0  9996", "line2": "2 30245  98.8901 346.7464 0192858 215.5047 143.3145 13.79097702948762"}}, "geometry": {"type": "Point", "coordinates": [10.716798554122082, -68.73336955888747]}}, {"type": "Feature", "properties": {"norad_id": 30246, "name": "FENGYUN 1C DEB", "group": "fengyun-1c-debris", "lat": 30.654788527104916, "lon": -32.87231600000571, "alt_km": 1074.6220003442522, "timestamp": "2025-12-26T05:31:12.782464+00:00", "meta": {"OBJECT_NAME": "FENGYUN 1C DEB", "OBJECT_ID": "1999-025XF", "EPOCH": "2025-12-25T22:12:45.739296", "MEAN_MOTION": 13.37024308, "ECCENTRICITY": 0.03704497, "INCLINATION": 98.6738, "RA_OF_ASC_NODE": 141.677, "ARG_OF_PERICENTER": 66.6309, "MEAN_ANOMALY": 53.2465, "EPHEMERIS_TYPE": 0, "CLASSIFICATION_TYPE": "U", "NORAD_CAT_ID": 30246, "ELEMENT_SET_NO": 999, "REV_AT_EPOCH": 92316, "BSTAR": 0.00028782487, "MEAN_MOTION_DOT": 1.9e-06, "MEAN_MOTION_DDOT": 0}, "tle": {"line1": "1 30246U 99025XF  25359.92552939  .00000190  00000+0  28782-3 0  9997", "line2": "2 30246  98.6738 141.6770 0370449  66.6309  53.2465 13.37024308923168"}}, "geometry": {"type": "Point", "coordinates": [-32.87231600000571, 30.654788527104916]}}, {"type": "Feature", "properties": {"norad_id": 30247, "name": "FENGYUN 1C DEB", "group": "fengyun-1c-debris", "lat": 28.57197551024634, "lon": -97.18766043390879, "alt_km": 664.0880644360377, "timestamp": "2025-12-26T05:31:12.782474+00:00", "meta": {"OBJECT_NAME": "FENGYUN 1C DEB", "OBJECT_ID": "1999-025XG", "EPOCH": "2025-12-24T23:50:19.937184", "MEAN_MOTION": 14.59646948, "ECCENTRICITY": 0.01916191, "INCLINATION": 98.2764, "RA_OF_ASC_NODE": 266.1244, "ARG_OF_PERICENTER": 314.0258, "MEAN_ANOMALY": 57.9158, "EPHEMERIS_TYPE": 0, "CLASSIFICATION_TYPE": "U", "NORAD_CAT_ID": 30247, "ELEMENT_SET_NO": 999, "REV_AT_EPOCH": 97461, "BSTAR": 0.0035005142, "MEAN_MOTION_DOT": 0.00021568, "MEAN_MOTION_DDOT": 0}, "tle": {"line1": "1 30247U 99025XG  25358.99328631  .00021568  00000+0  35005-2 0  9991", "line2": "2 30247  98.2764 266.1244 0191619 314.0258  57.9158 14.59646948974617"}}, "geometry": {"type": "Point", "coordinates": [-97.18766043390879, 28.57197551024634]}}, {"type": "Feature", "properties": {"norad_id": 30248, "name": "FENGYUN 1C DEB", "group": "fengyun-1c-debris", "lat": 59.57830029465752, "lon": 169.80715874558243, "alt_km": 675.1565077791192, "timestamp": "2025-12-26T05:31:12.782484+00:00", "meta": {"OBJECT_NAME": "FENGYUN 1C DEB", "OBJECT_ID": "1999-025XH", "EPOCH": "2025-12-25T11:08:43.486080", "MEAN_MOTION": 14.59607506, "ECCENTRICITY": 0.0027967, "INCLINATION": 99.1008, "RA_OF_ASC_NODE": 184.8096, "ARG_OF_PERICENTER": 110.7609, "MEAN_ANOMALY": 249.6588, "EPHEMERIS_TYPE": 0, "CLASSIFICATION_TYPE": "U", "NORAD_CAT_ID": 30248, "ELEMENT_SET_NO": 999, "REV_AT_EPOCH": 97614, "BSTAR": 0.0040535, "MEAN_MOTION_DOT": 0.00019388, "MEAN_MOTION_DDOT": 0}, "tle": {"line1": "1 30248U 99025XH  25359.46439220  .00019388  00000+0  40535-2 0  9993", "line2": "2 30248  99.1008 184.8096 0027967 110.7609 249.6588 14.59607506976149"}}, "geometry": {"type": "Point", "coordinates": [169.80715874558243, 59.57830029465752]}}, {"type": "Feature", "properties": {"norad_id": 30249, "name": "FENGYUN 1C DEB", "group": "fengyun-1c-debris", "lat": 52.77397995425523, "lon": 153.69392874523353, "alt_km": 683.4142350765605, "timestamp": "2025-12-26T05:31:12.782494+00:00", "meta": {"OBJECT_NAME": "FENGYUN 1C DEB", "OBJECT_ID": "1999-025XJ", "EPOCH": "2025-12-25T06:47:28.177728", "MEAN_MOTION": 14.58018718, "ECCENTRICITY": 0.0026984, "INCLINATION": 98.9593, "RA_OF_ASC_NODE": 164.659, "ARG_OF_PERICENTER": 2.0594, "MEAN_ANOMALY": 123.3896, "EPHEMERIS_TYPE": 0, "CLASSIFICATION_TYPE": "U", "NORAD_CAT_ID": 30249, "ELEMENT_SET_NO": 999, "REV_AT_EPOCH": 97746, "BSTAR": 0.0035177, "MEAN_MOTION_DOT": 0.00016231, "MEAN_MOTION_DDOT": 0}, "tle": {"line1": "1 30249U 99025XJ  25359.28296502  .00016231  00000+0  35177-2 0  9998", "line2": "2 30249  98.9593 164.6590 0026984   2.0594 123.3896 14.58018718977461"}}, "geometry": {"type": "Point", "coordinates": [153.69392874523353, 52.77397995425523]}}, {"type": "Feature", "properties": {"norad_id": 30250, "name": "FENGYUN 1C DEB", "group": "fengyun-1c-debris", "lat": -71.88277102522765, "lon": 19.729385084478427, "alt_km": 904.378921550795, "timestamp": "2025-12-26T05:31:12.782504+00:00", "meta": {"OBJECT_NAME": "FENGYUN 1C DEB", "OBJECT_ID": "1999-025XK", "EPOCH": "2025-12-25T23:06:55.981152", "MEAN_MOTION": 14.01637643, "ECCENTRICITY": 0.00684877, "INCLINATION": 98.7547, "RA_OF_ASC_NODE": 351.3757, "ARG_OF_PERICENTER": 185.9191, "MEAN_ANOMALY": 193.4567, "EPHEMERIS_TYPE": 0, "CLASSIFICATION_TYPE": "U", "NORAD_CAT_ID": 30250, "ELEMENT_SET_NO": 999, "REV_AT_EPOCH": 96677, "BSTAR": 0.00021259061, "MEAN_MOTION_DOT": 2.87e-06, "MEAN_MOTION_DDOT": 0}, "tle": {"line1": "1 30250U 99025XK  25359.96314793  .00000287  00000+0  21259-3 0  9999", "line2": "2 30250  98.7547 351.3757 0068487 185.9191 193.4567 14.01637643966775"}}, "geometry": {"type": "Point", "coordinates": [19.729385084478427, -71.88277102522765]}}, {"type": "Feature", "properties": {"norad_id": 30251, "name": "FENGYUN 1C DEB", "group": "fengyun-1c-debris", "lat": -71.01894963149302, "lon": -8.534443758311639, "alt_km": 771.9984325395944, "timestamp": "2025-12-26T05:31:12.782513+00:00", "meta": {"OBJECT_NAME": "FENGYUN 1C DEB", "OBJECT_ID": "1999-025XL", "EPOCH": "2025-12-25T13:30:20.965824", "MEAN_MOTION": 14.29334664, "ECCENTRICITY": 0.0051381, "INCLINATION": 99.0487, "RA_OF_ASC_NODE": 198.3738, "ARG_OF_PERICENTER": 292.915, "MEAN_ANOMALY": 129.0952, "EPHEMERIS_TYPE": 0, "CLASSIFICATION_TYPE": "U", "NORAD_CAT_ID": 30251, "ELEMENT_SET_NO": 999, "REV_AT_EPOCH": 98325, "BSTAR": 0.00049146, "MEAN_MOTION_DOT": 1.221e-05, "MEAN_MOTION_DDOT": 0}, "tle": {"line1": "1 30251U 99025XL  25359.56274266  .00001221  00000+0  49146-3 0  9990", "line2": "2 30251  99.0487 198.3738 0051381 292.9150 129.0952 14.29334664983252"}}, "geometry": {"type": "Point", "coordinates": [-8.534443758311639, -71.01894963149302]}}]}